[{"OBJECT_NAME":"ONEWEB-0205","OBJECT_ID":"2021-031S","EPOCH":"2026-03-09T17:28:13.247904","MEAN_MOTION":13.14503131,"ECCENTRICITY":0.00017636,"INCLINATION":87.8985,"RA_OF_ASC_NODE":309.5397,"ARG_OF_PERICENTER":76.1993,"MEAN_ANOMALY":283.9333,"EPHEMERIS_TYPE":0,"CLASSIFICATION_TYPE":"U","NORAD_CAT_ID":48226,"ELEMENT_SET_NO":999,"REV_AT_EPOCH":23520,"BSTAR":0.00058451129,"MEAN_MOTION_DOT":2.29e-6,"MEAN_MOTION_DDOT":0},{"OBJECT_NAME":"FENGYUN 1C DEB","OBJECT_ID":"1999-025AJR","EPOCH":"2026-03-09T01:24:58.868352","MEAN_MOTION":13.31238196,"ECCENTRICITY":0.0409107,"INCLINATION":100.0526,"RA_OF_ASC_NODE":114.6892,"ARG_OF_PERICENTER":21.4872,"MEAN_ANOMALY":7.8987,"EPHEMERIS_TYPE":0,"CLASSIFICATION_TYPE":"U","NORAD_CAT_ID":30527,"ELEMENT_SET_NO":999,"REV_AT_EPOCH":92505,"BSTAR":0.0013747353,"MEAN_MOTION_DOT":9.99e-6,"MEAN_MOTION_DDOT":0}]
